{"type":"FeatureCollection","kerfdesk":{"units":"mm","axes":"x right, y up; origin at the page lower-left corner","flattenToleranceMm":0.01,"precisionMm":0.001},"bbox":[0,0.001,30,37.887],"features":[
{"type":"Feature","properties":{"color":"#1a2b3c","paint":"fill","fillRule":"evenodd"},"geometry":{"type":"MultiPolygon","coordinates":[[[[5,37.887],[4.373,37.848],[3.769,37.734],[3.193,37.55],[2.65,37.301],[2.144,36.991],[1.68,36.624],[1.262,36.207],[0.896,35.743],[0.586,35.237],[0.337,34.693],[0.153,34.117],[0.039,33.514],[0,32.887],[0,12.887],[0.039,12.26],[0.153,11.656],[0.337,11.08],[0.586,10.537],[0.896,10.031],[1.262,9.567],[1.68,9.149],[2.144,8.783],[2.65,8.473],[3.193,8.223],[3.769,8.04],[4.373,7.926],[5,7.887],[25,7.887],[25.627,7.926],[26.231,8.04],[26.807,8.223],[27.35,8.473],[27.856,8.783],[28.32,9.149],[28.738,9.567],[29.104,10.031],[29.414,10.537],[29.663,11.08],[29.847,11.656],[29.961,12.26],[30,12.887],[30,32.887],[29.961,33.514],[29.847,34.117],[29.663,34.693],[29.414,35.237],[29.104,35.743],[28.738,36.207],[28.32,36.624],[27.856,36.991],[27.35,37.301],[26.807,37.55],[26.231,37.734],[25.627,37.848],[25,37.887],[5,37.887]],[[4,33.887],[12,33.887],[12,25.887],[4,25.887],[4,33.887]],[[25,16.887],[24.966,16.365],[24.864,15.851],[24.696,15.356],[24.464,14.887],[24.173,14.452],[23.828,14.058],[23.435,13.713],[23,13.423],[22.531,13.191],[22.035,13.023],[21.522,12.921],[21,12.887],[20.478,12.921],[19.965,13.023],[19.469,13.191],[19,13.423],[18.565,13.713],[18.172,14.058],[17.827,14.452],[17.536,14.887],[17.304,15.356],[17.136,15.851],[17.034,16.365],[17,16.887],[17.034,17.409],[17.136,17.922],[17.304,18.417],[17.536,18.887],[17.827,19.322],[18.172,19.715],[18.565,20.06],[19,20.351],[19.469,20.582],[19.965,20.75],[20.478,20.853],[21,20.887],[21.522,20.853],[22.035,20.75],[22.531,20.582],[23,20.351],[23.435,20.06],[23.828,19.715],[24.173,19.322],[24.464,18.887],[24.696,18.417],[24.864,17.922],[24.966,17.409],[25,16.887]]],[[[20,17.887],[20,15.887],[22,15.887],[22,17.887],[20,17.887]]]]}},
{"type":"Feature","properties":{"color":"#ff0000","paint":"stroke","fillRule":"evenodd"},"geometry":{"type":"LineString","coordinates":[[2,2.887],[2.61,3.589],[3.219,4.173],[3.828,4.653],[4.444,5.04],[5.065,5.339],[5.701,5.558],[6.357,5.701],[7.042,5.768],[7.765,5.757],[8.537,5.664],[9.375,5.479],[10.3,5.189],[11.357,4.768],[12.628,4.165],[14.491,3.169],[17.018,1.79],[18.367,1.129],[19.466,0.67],[20.421,0.351],[21.275,0.144],[22.061,0.03],[22.794,0.001],[23.486,0.05],[24.149,0.175],[24.789,0.376],[25.413,0.657],[26.028,1.022],[26.637,1.478],[27.245,2.036],[27.623,2.439],[28,2.887]]}}
]}
