{"type":"FeatureCollection","kerfdesk":{"units":"mm","axes":"x right, y up; origin at the page lower-left corner","flattenToleranceMm":0.01,"precisionMm":0.001},"bbox":[20,20,70,34.995],"features":[
{"type":"Feature","properties":{"color":"#000000","paint":"fill","fillRule":"evenodd"},"geometry":{"type":"Polygon","coordinates":[[[20,20],[70,20],[69.97,20.835],[69.882,21.648],[69.71,22.558],[69.462,23.444],[69.138,24.307],[68.738,25.148],[68.258,25.969],[67.697,26.77],[67.051,27.552],[66.317,28.313],[65.492,29.053],[64.572,29.768],[63.554,30.457],[62.435,31.116],[61.214,31.741],[59.891,32.327],[58.466,32.869],[56.943,33.362],[55.327,33.799],[53.626,34.177],[51.85,34.488],[50.012,34.729],[48.127,34.895],[46.211,34.984],[44.288,34.995],[42.368,34.926],[40.474,34.779],[38.623,34.558],[36.83,34.264],[35.108,33.904],[33.469,33.481],[31.922,33.002],[30.471,32.472],[29.121,31.897],[27.873,31.282],[26.728,30.632],[25.683,29.95],[24.738,29.241],[23.888,28.508],[23.131,27.752],[22.463,26.975],[21.88,26.179],[21.379,25.363],[20.958,24.527],[20.615,23.67],[20.347,22.791],[20.155,21.887],[20.039,20.959],[20,20]]]}}
]}
